CTC1_L_00681007-03
1 83487U 25817GN  26037.47811343  .00000000  00000+0  00000-0 0  9991
2 83487  65.0000 180.0000 0000000   0.0000 144.0000  1.86512136    15
CTC1_L_00681007-04
1 83488U 25692PY  26037.47811343  .00000000  00000+0  00000-0 0  9993
2 83488  65.0000 180.0000 0000000   0.0000 180.0000  1.86512136    16
CTC1_L_00681007-05
1 83489U 22682GB  26037.47811343  .00000000  00000+0  00000-0 0  9990
2 83489  65.0000 180.0000 0000000   0.0000 216.0000  1.86512136    17
CTC1_L_00681007-06
1 83490U 24965MC  26037.47811343  .00000000  00000+0  00000-0 0  9998
2 83490  65.0000 180.0000 0000000   0.0000 252.0000  1.86512136    19
CTC1_L_00681007-07
1 83491U 22573XH  26037.47811343  .00000000  00000+0  00000-0 0  9992
2 83491  65.0000 180.0000 0000000   0.0000 288.0000  1.86512136    19
CTC1_L_00681007-08
1 83492U 24427IZ  26037.47811343  .00000000  00000+0  00000-0 0  9993
2 83492  65.0000 180.0000 0000000   0.0000 324.0000  1.86512136    11
CTC1_L_00681007-09
1 83493U 24709QT  26037.47811343  .00000000  00000+0  00000-0 0  9997
2 83493  65.0000 180.0000 0000000   0.0000   0.0000  1.86512136    13
CTC1_L_00681007-10
1 83494U 23041QQ  26037.47811343  .00000000  00000+0  00000-0 0  9996
2 83494  65.0000 180.0000 0000000   0.0000  36.0000  1.86512136    13
CTC1_L_00681008-01
1 83495U 24993FV  26037.47811343  .00000000  00000+0  00000-0 0  9994
2 83495  65.0000 210.0000 0000000   0.0000  84.0000  1.86512136    11
CTC1_L_00681008-02
1 83496U 22673WX  26037.47811343  .00000000  00000+0  00000-0 0  9998
2 83496  65.0000 210.0000 0000000   0.0000 120.0000  1.86512136    13
CTC1_L_00681008-03
1 83497U 22942ZD  26037.47811343  .00000000  00000+0  00000-0 0  9998
2 83497  65.0000 210.0000 0000000   0.0000 156.0000  1.86512136    13
CTC1_L_00681008-04
1 83498U 25168QT  26037.47811343  .00000000  00000+0  00000-0 0  9992
2 83498  65.0000 210.0000 0000000   0.0000 192.0000  1.86512136    14
CTC1_L_00681008-05
1 83499U 24564WC  26037.47811343  .00000000  00000+0  00000-0 0  9992
2 83499  65.0000 210.0000 0000000   0.0000 228.0000  1.86512136    15
CTC1_L_00681008-06
1 83500U 22412TO  26037.47811343  .00000000  00000+0  00000-0 0  9995
2 83500  65.0000 210.0000 0000000   0.0000 264.0000  1.86512136    18
CTC1_L_00681008-07
1 83501U 25443ZP  26037.47811343  .00000000  00000+0  00000-0 0  9993
2 83501  65.0000 210.0000 0000000   0.0000 300.0000  1.86512136    10
CTC1_L_00681008-08
1 83502U 26379NC  26037.47811343  .00000000  00000+0  00000-0 0  9993
2 83502  65.0000 210.0000 0000000   0.0000 336.0000  1.86512136    10
CTC1_L_00681008-09
1 83503U 26573ZT  26037.47811343  .00000000  00000+0  00000-0 0  9990
2 83503  65.0000 210.0000 0000000   0.0000  12.0000  1.86512136    12
CTC1_L_00681008-10
1 83504U 23365BE  26037.47811343  .00000000  00000+0  00000-0 0  9997
2 83504  65.0000 210.0000 0000000   0.0000  48.0000  1.86512136    12
CTC1_L_00681009-01
1 83505U 26003GS  26037.47811343  .00000000  00000+0  00000-0 0  9990
2 83505  65.0000 240.0000 0000000   0.0000  96.0000  1.86512136    19
CTC1_L_00681009-02
1 83506U 26817JJ  26037.47811343  .00000000  00000+0  00000-0 0  9994
2 83506  65.0000 240.0000 0000000   0.0000 132.0000  1.86512136    11
CTC1_L_00681009-03
1 83507U 24770NI  26037.47811343  .00000000  00000+0  00000-0 0  9991
2 83507  65.0000 240.0000 0000000   0.0000 168.0000  1.86512136    11
CTC1_L_00681009-04
1 83508U 24617MT  26037.47811343  .00000000  00000+0  00000-0 0  9992
2 83508  65.0000 240.0000 0000000   0.0000 204.0000  1.86512136    13
CTC1_L_00681009-05
1 83509U 26207PI  26037.47811343  .00000000  00000+0  00000-0 0  9990
2 83509  65.0000 240.0000 0000000   0.0000 240.0000  1.86512136    14
CTC1_L_00681009-06
1 83510U 26942YO  26037.47811343  .00000000  00000+0  00000-0 0  9998
2 83510  65.0000 240.0000 0000000   0.0000 276.0000  1.86512136    15
CTC1_L_00681009-07
1 83511U 22558CV  26037.47811343  .00000000  00000+0  00000-0 0  9998
2 83511  65.0000 240.0000 0000000   0.0000 312.0000  1.86512136    17
CTC1_L_00681009-08
1 83512U 26065OJ  26037.47811343  .00000000  00000+0  00000-0 0  9996
2 83512  65.0000 240.0000 0000000   0.0000 348.0000  1.86512136    17
CTC1_L_00681009-09
1 83513U 26340OJ  26037.47811343  .00000000  00000+0  00000-0 0  9993
2 83513  65.0000 240.0000 0000000   0.0000  24.0000  1.86512136    19
CTC1_L_00681009-10
1 83514U 22081AE  26037.47811343  .00000000  00000+0  00000-0 0  9992
2 83514  65.0000 240.0000 0000000   0.0000  60.0000  1.86512136    10
CTC1_L_00681010-01
1 83515U 26528LR  26037.47811343  .00000000  00000+0  00000-0 0  9993
2 83515  65.0000 270.0000 0000000   0.0000 108.0000  1.86512136    17
CTC1_L_00681010-02
1 83516U 23784Z   26037.47811343  .00000000  00000+0  00000-0 0  9995
2 83516  65.0000 270.0000 0000000   0.0000 144.0000  1.86512136    18
CTC1_L_00681010-03
1 83517U 23083MR  26037.47811343  .00000000  00000+0  00000-0 0  9998
2 83517  65.0000 270.0000 0000000   0.0000 180.0000  1.86512136    19
CTC1_L_00681010-04
1 83518U 26394KE  26037.47811343  .00000000  00000+0  00000-0 0  9997
2 83518  65.0000 270.0000 0000000   0.0000 216.0000  1.86512136    10
CTC1_L_00681010-05
1 83519U 22965MI  26037.47811343  .00000000  00000+0  00000-0 0  9998
2 83519  65.0000 270.0000 0000000   0.0000 252.0000  1.86512136    11
CTC1_L_00681010-06
1 83520U 24639R   26037.47811343  .00000000  00000+0  00000-0 0  9990
2 83520  65.0000 270.0000 0000000   0.0000 288.0000  1.86512136    12
CTC1_L_00681010-07
1 83521U 25170OY  26037.47811343  .00000000  00000+0  00000-0 0  9992
2 83521  65.0000 270.0000 0000000   0.0000 324.0000  1.86512136    14
CTC1_L_00681010-08
1 83522U 23038YI  26037.47811343  .00000000  00000+0  00000-0 0  9994
2 83522  65.0000 270.0000 0000000   0.0000   0.0000  1.86512136    16
CTC1_L_00681010-09
1 83523U 22065OL  26037.47811343  .00000000  00000+0  00000-0 0  9994
2 83523  65.0000 270.0000 0000000   0.0000  36.0000  1.86512136    16
CTC1_L_00681010-10
1 83524U 26286LX  26037.47811343  .00000000  00000+0  00000-0 0  9994
2 83524  65.0000 270.0000 0000000   0.0000  72.0000  1.86512136    17
CTC1_L_00681011-01
1 83525U 22336XQ  26037.47811343  .00000000  00000+0  00000-0 0  9997
2 83525  65.0000 300.0000 0000000   0.0000 120.0000  1.86512136    16
CTC1_L_00681011-02
1 83526U 23909NP  26037.47811343  .00000000  00000+0  00000-0 0  9995
2 83526  65.0000 300.0000 0000000   0.0000 156.0000  1.86512136    16
CTC1_L_00681011-03
1 83527U 26302HV  26037.47811343  .00000000  00000+0  00000-0 0  9996
2 83527  65.0000 300.0000 0000000   0.0000 192.0000  1.86512136    17
CTC1_L_00681011-04
1 83528U 24377NO  26037.47811343  .00000000  00000+0  00000-0 0  9997
2 83528  65.0000 300.0000 0000000   0.0000 228.0000  1.86512136    18
CTC1_L_00681011-05
1 83529U 24452UV  26037.47811343  .00000000  00000+0  00000-0 0  9992
2 83529  65.0000 300.0000 0000000   0.0000 264.0000  1.86512136    19
CTC1_L_00681011-06
1 83530U 25182NJ  26037.47811343  .00000000  00000+0  00000-0 0  9995
2 83530  65.0000 300.0000 0000000   0.0000 300.0000  1.86512136    12
CTC1_L_00681011-07
1 83531U 26581UP  26037.47811343  .00000000  00000+0  00000-0 0  9990
2 83531  65.0000 300.0000 0000000   0.0000 336.0000  1.86512136    12
CTC1_L_00681011-08
1 83532U 23630AX  26037.47811343  .00000000  00000+0  00000-0 0  9993
2 83532  65.0000 300.0000 0000000   0.0000  12.0000  1.86512136    14
CTC1_L_00681011-09
1 83533U 26527M   26037.47811343  .00000000  00000+0  00000-0 0  9992
2 83533  65.0000 300.0000 0000000   0.0000  48.0000  1.86512136    14
CTC1_L_00681011-10
1 83534U 25522JB  26037.47811343  .00000000  00000+0  00000-0 0  9997
2 83534  65.0000 300.0000 0000000   0.0000  84.0000  1.86512136    15
CTC1_L_00681012-01
1 83535U 26602JT  26037.47811343  .00000000  00000+0  00000-0 0  9998
2 83535  65.0000 330.0000 0000000   0.0000 132.0000  1.86512136    13
CTC1_L_00681012-02
1 83536U 23909WU  26037.47811343  .00000000  00000+0  00000-0 0  9996
2 83536  65.0000 330.0000 0000000   0.0000 168.0000  1.86512136    13
CTC1_L_00681012-03
1 83537U 23590FH  26037.47811343  .00000000  00000+0  00000-0 0  9993
2 83537  65.0000 330.0000 0000000   0.0000 204.0000  1.86512136    15
CTC1_L_00681012-04
1 83538U 26468EC  26037.47811343  .00000000  00000+0  00000-0 0  9991
2 83538  65.0000 330.0000 0000000   0.0000 240.0000  1.86512136    16
CTC1_L_00681012-05
1 83539U 26337SM  26037.47811343  .00000000  00000+0  00000-0 0  9997
2 83539  65.0000 330.0000 0000000   0.0000 276.0000  1.86512136    16
CTC1_L_00681012-06
1 83540U 25729DZ  26037.47811343  .00000000  00000+0  00000-0 0  9993
2 83540  65.0000 330.0000 0000000   0.0000 312.0000  1.86512136    19
CTC1_L_00681012-07
1 83541U 25900XK  26037.47811343  .00000000  00000+0  00000-0 0  9995
2 83541  65.0000 330.0000 0000000   0.0000 348.0000  1.86512136    19
CTC1_L_00681012-08
1 83542U 25214ZY  26037.47811343  .00000000  00000+0  00000-0 0  9994
2 83542  65.0000 330.0000 0000000   0.0000  24.0000  1.86512136    11
CTC1_L_00681012-09
1 83543U 26102KL  26037.47811343  .00000000  00000+0  00000-0 0  9992
2 83543  65.0000 330.0000 0000000   0.0000  60.0000  1.86512136    12
CTC1_L_00681012-10
1 83544U 26328GG  26037.47811343  .00000000  00000+0  00000-0 0  9993
2 83544  65.0000 330.0000 0000000   0.0000  96.0000  1.86512136    12
